{"spkid": "20417949", "covariance": {"epoch": "2458384.5", "labels": ["e", "q", "tp", "node", "peri", "i"], "data": [["1.740677453249775E-14", "-2.194142229478696E-14", "-1.552145549314006E-12", "8.618855591570998E-14", "-7.376626539123851E-13", "5.603523510103306E-13"], ["-2.194142229478696E-14", "2.766028899347442E-14", "1.953278998915296E-12", "-1.085724475356286E-13", "9.283289062640474E-13", "-7.081390024154583E-13"], ["-1.552145549314006E-12", "1.953278998915296E-12", "1.729150030678202E-9", "-3.552000112033969E-11", "8.616433446560977E-10", "6.459646000457492E-11"], ["8.618855591570998E-14", "-1.085724475356286E-13", "-3.552000112033969E-11", "4.159388237621767E-11", "-4.839720476665767E-11", "-5.065882342297492E-11"], ["-7.376626539123851E-13", "9.283289062640474E-13", "8.616433446560977E-10", "-4.839720476665767E-11", "4.649035251648518E-10", "7.314833825547481E-11"], ["5.603523510103306E-13", "-7.081390024154583E-13", "6.459646000457492E-11", "-5.065882342297492E-11", "7.314833825547481E-11", "4.094793641858392E-10"]], "elements": [{"name": "e", "sigma": 1.31934735882927e-07, "units": null, "value": ".1978183066487638", "title": "eccentricity", "label": "e"}, {"sigma": 1.66313826825897e-07, "name": "q", "title": "perihelion distance", "value": "1.012458448183399", "units": "au", "label": "q"}, {"label": "tp", "units": "TDB", "title": "time of perihelion passage", "value": "2458280.026986676208", "sigma": 4.15830498001073e-05, "name": "tp"}, {"name": "om", "sigma": 6.44933193255066e-06, "value": "40.11592225666964", "title": "longitude of the ascending node", "units": "deg", "label": "node"}, {"value": "173.8248397457392", "title": "argument of perihelion", "units": "deg", "sigma": 2.15616215801329e-05, "name": "w", "label": "peri"}, {"label": "i", "name": "i", "sigma": 2.02355964623195e-05, "units": "deg", "title": "inclination", "value": "38.29044041413845"}]}, "elements": [{"label": "e", "title": "eccentricity", "value": ".1976768104983108", "units": null, "sigma": "1.3198E-7", "name": "e"}, {"label": "a", "value": "1.261995314524148", "title": "semi-major axis", "units": "au", "sigma": "2.1421E-9", "name": "a"}, {"label": "q", "sigma": "1.6626E-7", "name": "q", "value": "1.012528105885202", "title": "perihelion distance", "units": "au"}, {"title": "inclination; angle with respect to x-y ecliptic plane", "value": "38.289676627832", "units": "deg", "sigma": "2.0235E-5", "name": "i", "label": "i"}, {"label": "node", "sigma": "6.4464E-6", "name": "om", "title": "longitude of the ascending node", "value": "40.09349311007565", "units": "deg"}, {"label": "peri", "units": "deg", "title": "argument of perihelion", "value": "173.862922213926", "name": "w", "sigma": "2.1574E-5"}, {"label": "M", "units": "deg", "title": "mean anomaly", "value": "230.1618500399219", "sigma": "2.8574E-5", "name": "ma"}, {"label": "tp", "value": "2461387.260427128559", "title": "time of perihelion passage", "units": "TDB", "name": "tp", "sigma": "4.1091E-5"}, {"title": "sidereal orbital period", "value": "517.8274165717393", "units": "d", "name": "per", "sigma": "1.3184E-6", "label": "period"}, {"label": "n", "units": "deg/d", "value": ".6952123207059392", "title": "mean motion", "sigma": "1.7701E-9", "name": "n"}, {"label": "Q", "sigma": "2.5656E-9", "name": "ad", "units": "au", "value": "1.511462523163094", "title": "aphelion distance"}], "epoch": "2461200.5"}